#dP2019  2 14  0  0  0.00000000     289 d+D   IGS14 FIT AIUB
## 2040 345600.00000000   300.00000000 58528 0.0000000000000
+   79   G01G02G03G04G05G06G07G08G09G10G11G12G13G14G15G16G17
+        G18G19G20G21G22G23G24G25G26G27G28G29G30G31G32R01R02
+        R03R04R05R07R08R09R10R11R13R14R15R16R17R18R19R20R21
+        R22R23R24R26E01E02E03E04E05E07E08E09E11E12E13E14E15
+        E18E19E21E24E25E26E27E30E31E33E36  0  0  0  0  0  0
++         1  1  1  4  1  1  1  1  1  1  1  1  1  1  1  1  1
++         1  1  1  1  1  1  1  1  6  1  1  1  1  1  1  1  2
++         2  2  2  2  2  2  2  2  2  2  1  2  1  2  2  2  2
++         4  1  2  3  1  1  1  1  1  2  1  1  1  1  1  2  1
++         2  2  1  1  1  1  1  1  1  2  1  0  0  0  0  0  0
%c M  cc GPS ccc cccc cccc cccc cccc ccccc ccccc ccccc ccccc
%c cc cc ccc ccc cccc cccc cccc cccc ccccc ccccc ccccc ccccc
%f  1.2500000  1.025000000  0.00000000000  0.000000000000000
%f  0.0000000  0.000000000  0.00000000000  0.000000000000000
%i    0    0    0    0      0      0      0      0         0
%i    0    0    0    0      0      0      0      0         0
/* CENTER FOR ORBIT DETERMINATION IN EUROPE (CODE)          
/* IGS-Repro3 GNSS orbits and clocks for year-day 2019-045  
/* Middle day of a 3-day long-arc GPS/GLO/GAL solution      
/* Product reference DOI: 10.7892/boris.135946              
/* PCV:IGS14      OL/AL:FES2014b NONE     YN ORB:CoN CLK:BRD
*  2019  2 14  2 10  0.00000000
PG01  14006.668739  -5503.059959  21689.549365   -162.840615
PG02 -14024.169360 -17811.482347 -13384.073337   -139.247443
PG03  22486.286268 -11562.995227   7967.864286    182.816617
PG04   5884.363663 -14050.903426 -21745.957394    112.842867
PG05 -15867.386612  -5745.839820 -20671.698466      1.078029
PG06  -7407.513693 -25127.353314  -4255.490034    276.248134
PG07   7893.924291 -19703.847458 -15423.863146     32.997106
PG08  25645.733693   5257.823259   5111.733289   -132.671592
PG09  12232.617207 -11339.575339 -20719.348641    458.877695
PG10  -5039.981861  19716.301861  17016.788052    117.218864
PG11  17572.540539  -1170.131915  19291.943926   -660.590496
PG12 -22937.890452   8825.886886   9626.645441    268.151018
PG13 -23192.195179 -12921.255329  -1403.052378    -75.012958
PG14  13431.856608  17677.169682  15017.878463    -91.440821
PG15 -25812.624000  -1720.379470   6600.219731   -327.955147
PG16  15974.163205   5623.954990 -20748.866616    -19.060933
PG17  -4203.341533 -16717.052572  20644.570608      9.456503
PG18  15894.722710   5757.170003  20040.698483     25.742062
PG19 -13256.328969 -17343.981111  14764.396508   -352.734097
PG20 -12173.450646  21957.079799   8341.940118    522.182501
PG21  -3995.811570  22657.070642 -12562.188674   -250.607729
PG22  21595.754704  -5514.549372  14639.833971   -644.725574
PG23  21793.159153  -3754.092900 -14687.830716   -197.318195
PG24 -15723.839532    965.252694  21253.660528    -62.131094
PG25 -19933.091276  17326.661885   -847.133624   -720.089068
PG26   8147.342055  13222.034014 -21550.665791    123.808404
PG27  23303.329534  12071.472366  -5092.778240    -67.220937
PG28   7844.985266 -19327.672711  17109.041093    764.533337
PG29 -16540.875512   6942.132610 -19605.798934    271.060660
PG30    852.669206 -25830.910038  -5689.680998    -52.302754
PG31   7858.344398  24365.146098  -6120.530844     58.815209
PG32   7714.524693  16971.841736  19001.447997   -227.960011
PR01 -18716.711162  11084.775793  13332.944237     39.403831
PR02   1353.228933  10875.891694  23066.887499    354.228048
PR03  18573.205285   4190.476998  17034.853861     -8.642218
PR04  24959.733385  -5270.585745    621.745830    295.107168
PR05  17126.070382 -11176.477452 -15253.211034     22.095363
PR07 -18881.751215  -3941.682020 -16639.159479    -57.865310
PR08 -24991.415121   4915.458426  -1266.701455     19.090697
PR09    995.215564 -22386.446072  12139.422203     54.182559
PR10  -7276.620248 -10494.656052  22043.711896     41.977717
PR11 -12979.843408   8811.446764  20136.640296    -56.648219
PR13  -1586.589589  22960.395075 -11018.001910    -20.122750
PR14   7585.848334  10544.639030 -21945.995192     35.966910
PR15  12740.774806  -7953.046976 -20603.387829     99.899900
PR16  10353.814552 -22182.355372  -7414.686353     11.054669
PR17  18209.093952  17420.844894   3861.720354    204.351456
PR18  16641.875437   5871.243607  18467.730666     32.627368
PR19   6130.025633  -8817.458441  23144.597192    -61.249677
PR20  -8994.969917 -19656.932130  13513.993268   -368.737566
PR21 -18320.814442 -17210.207086  -4395.798212    -31.153975
PR22 -15404.632633  -3657.568756 -19942.796845     -4.089679
PR23  -2047.489278  12631.548513 -22067.236155    209.434296
PR24  10458.839316  19846.328263 -12176.573929   -177.153521
PR26  -7808.744695 -18931.103533  15239.571813     -4.232736
PE01 -19102.083573   4327.202311  22190.229415 999999.999999
PE02  19121.925575  -4388.852845 -22172.023965 999999.999999
PE03  29547.589346    665.951419   1522.268572 999999.999999
PE04 -22140.609271  11585.431855  15865.846325 999999.999999
PE05  19696.161881  12614.436184  18140.239569 999999.999999
PE07   1635.311776 -17133.688379 -24077.870656 999999.999999
PE08  21973.902805 -11719.152600 -15992.005287 999999.999999
PE09  -1504.859009  17005.851589  24183.625740 999999.999999
PE11   5053.775491  25767.712243 -13676.643204 999999.999999
PE12 -11051.526597  12922.148796 -24219.291484 999999.999999
PE13  -5055.041207 -25656.330893  13876.658388 999999.999999
PE14  -8565.950688  18838.769179 -25176.557604 999999.999999
PE15  10698.645901 -13241.829155  24229.279747 999999.999999
PE18   7187.940240 -13025.509758  18021.544083 999999.999999
PE19 -29334.088548  -1913.217131  -3443.504350 999999.999999
PE21  -8592.711057 -16109.796780  23294.328871 999999.999999
PE24  -6616.639047  26654.420441 -11025.018577 999999.999999
PE25   8564.388265  16144.024291 -23282.015181 999999.999999
PE26 -17702.278298 -23283.053855  -4545.156773 999999.999999
PE27   6881.673121 -26782.199289  10571.849108 999999.999999
PE30  18297.021521 -21890.748216  -7925.537856 999999.999999
PE31 -18297.699925  21722.797454   8340.050806 999999.999999
PE33 -20236.990145  -6962.370467 -20431.006013 999999.999999
PE36  17930.635369  23089.801268   4674.849558 999999.999999
EOF





================================================================================
IGSREPRO3
================================================================================



